[{"OBJECT_NAME":"COSMOS 2251 DEB","OBJECT_ID":"1993-036BWU","EPOCH":"2026-02-27T18:42:40.955616","MEAN_MOTION":14.52666006,"ECCENTRICITY":0.00962859,"INCLINATION":73.9115,"RA_OF_ASC_NODE":210.0861,"ARG_OF_PERICENTER":112.8262,"MEAN_ANOMALY":248.3104,"EPHEMERIS_TYPE":0,"CLASSIFICATION_TYPE":"U","NORAD_CAT_ID":46430,"ELEMENT_SET_NO":999,"REV_AT_EPOCH":80801,"BSTAR":0.0020057817,"MEAN_MOTION_DOT":8.716e-5,"MEAN_MOTION_DDOT":0},{"OBJECT_NAME":"COSMOS 2251 DEB","OBJECT_ID":"1993-036BWW","EPOCH":"2026-03-05T03:16:45.256224","MEAN_MOTION":13.36762754,"ECCENTRICITY":0.04717835,"INCLINATION":73.8735,"RA_OF_ASC_NODE":341.4492,"ARG_OF_PERICENTER":84.9446,"MEAN_ANOMALY":343.7224,"EPHEMERIS_TYPE":0,"CLASSIFICATION_TYPE":"U","NORAD_CAT_ID":46432,"ELEMENT_SET_NO":999,"REV_AT_EPOCH":68067,"BSTAR":0.0012765246,"MEAN_MOTION_DOT":1.236e-5,"MEAN_MOTION_DDOT":0},{"OBJECT_NAME":"COSMOS 2251 DEB","OBJECT_ID":"1993-036BXC","EPOCH":"2026-03-04T23:23:15.377856","MEAN_MOTION":14.53273661,"ECCENTRICITY":0.0134876,"INCLINATION":73.9819,"RA_OF_ASC_NODE":163.468,"ARG_OF_PERICENTER":330.2926,"MEAN_ANOMALY":148.2271,"EPHEMERIS_TYPE":0,"CLASSIFICATION_TYPE":"U","NORAD_CAT_ID":47048,"ELEMENT_SET_NO":999,"REV_AT_EPOCH":60884,"BSTAR":0.0013408,"MEAN_MOTION_DOT":6.249e-5,"MEAN_MOTION_DDOT":0},{"OBJECT_NAME":"COSMOS 2251 DEB","OBJECT_ID":"1993-036BXF","EPOCH":"2026-02-26T06:00:17.828640","MEAN_MOTION":13.67442496,"ECCENTRICITY":0.0340476,"INCLINATION":74.0972,"RA_OF_ASC_NODE":60.1411,"ARG_OF_PERICENTER":156.9473,"MEAN_ANOMALY":223.2083,"EPHEMERIS_TYPE":0,"CLASSIFICATION_TYPE":"U","NORAD_CAT_ID":47051,"ELEMENT_SET_NO":999,"REV_AT_EPOCH":60970,"BSTAR":0.00084654,"MEAN_MOTION_DOT":1.045e-5,"MEAN_MOTION_DDOT":0},{"OBJECT_NAME":"COSMOS 2251 DEB","OBJECT_ID":"1993-036BXG","EPOCH":"2026-03-04T08:04:39.903744","MEAN_MOTION":14.35647067,"ECCENTRICITY":0.00600815,"INCLINATION":74.0488,"RA_OF_ASC_NODE":190.7449,"ARG_OF_PERICENTER":246.4546,"MEAN_ANOMALY":144.008,"EPHEMERIS_TYPE":0,"CLASSIFICATION_TYPE":"U","NORAD_CAT_ID":47052,"ELEMENT_SET_NO":999,"REV_AT_EPOCH":62960,"BSTAR":0.00046285768,"MEAN_MOTION_DOT":1.337e-5,"MEAN_MOTION_DDOT":0},{"OBJECT_NAME":"COSMOS 2251 DEB","OBJECT_ID":"1993-036BXH","EPOCH":"2026-02-09T01:53:10.207968","MEAN_MOTION":13.59837713,"ECCENTRICITY":0.03811045,"INCLINATION":74.0576,"RA_OF_ASC_NODE":159.6243,"ARG_OF_PERICENTER":320.0647,"MEAN_ANOMALY":225.2715,"EPHEMERIS_TYPE":0,"CLASSIFICATION_TYPE":"U","NORAD_CAT_ID":47053,"ELEMENT_SET_NO":999,"REV_AT_EPOCH":29681,"BSTAR":0.0012257384,"MEAN_MOTION_DOT":1.45e-5,"MEAN_MOTION_DDOT":0},{"OBJECT_NAME":"COSMOS 2251 DEB","OBJECT_ID":"1993-036BXP","EPOCH":"2026-02-24T10:20:14.374752","MEAN_MOTION":15.23304419,"ECCENTRICITY":0.00189769,"INCLINATION":73.9739,"RA_OF_ASC_NODE":80.9699,"ARG_OF_PERICENTER":258.0232,"MEAN_ANOMALY":101.8839,"EPHEMERIS_TYPE":0,"CLASSIFICATION_TYPE":"U","NORAD_CAT_ID":47059,"ELEMENT_SET_NO":999,"REV_AT_EPOCH":9423,"BSTAR":0.0028818799,"MEAN_MOTION_DOT":0.00069352,"MEAN_MOTION_DDOT":0},{"OBJECT_NAME":"COSMOS 2251 DEB","OBJECT_ID":"1993-036BXS","EPOCH":"2026-03-05T10:32:54.754368","MEAN_MOTION":13.72200584,"ECCENTRICITY":0.0322895,"INCLINATION":74.0821,"RA_OF_ASC_NODE":301.7772,"ARG_OF_PERICENTER":48.2079,"MEAN_ANOMALY":129.1317,"EPHEMERIS_TYPE":0,"CLASSIFICATION_TYPE":"U","NORAD_CAT_ID":47062,"ELEMENT_SET_NO":999,"REV_AT_EPOCH":56736,"BSTAR":0.002142,"MEAN_MOTION_DOT":2.813e-5,"MEAN_MOTION_DDOT":0},{"OBJECT_NAME":"COSMOS 2251 DEB","OBJECT_ID":"1993-036BXY","EPOCH":"2026-03-04T16:07:08.128704","MEAN_MOTION":14.53897362,"ECCENTRICITY":0.00154454,"INCLINATION":74.0246,"RA_OF_ASC_NODE":48.6267,"ARG_OF_PERICENTER":125.0281,"MEAN_ANOMALY":235.2333,"EPHEMERIS_TYPE":0,"CLASSIFICATION_TYPE":"U","NORAD_CAT_ID":47068,"ELEMENT_SET_NO":999,"REV_AT_EPOCH":62947,"BSTAR":0.0012429526,"MEAN_MOTION_DOT":5.212e-5,"MEAN_MOTION_DDOT":0},{"OBJECT_NAME":"COSMOS 2251 DEB","OBJECT_ID":"1993-036BXZ","EPOCH":"2026-02-23T02:01:24.114432","MEAN_MOTION":14.84285904,"ECCENTRICITY":0.00071366,"INCLINATION":74.0146,"RA_OF_ASC_NODE":329.5947,"ARG_OF_PERICENTER":272.2683,"MEAN_ANOMALY":87.7678,"EPHEMERIS_TYPE":0,"CLASSIFICATION_TYPE":"U","NORAD_CAT_ID":47069,"ELEMENT_SET_NO":999,"REV_AT_EPOCH":73569,"BSTAR":0.0026112493,"MEAN_MOTION_DOT":0.0002194,"MEAN_MOTION_DDOT":0},{"OBJECT_NAME":"COSMOS 2251 DEB","OBJECT_ID":"1993-036BYD","EPOCH":"2026-02-22T19:17:49.360992","MEAN_MOTION":14.0488758,"ECCENTRICITY":0.01587081,"INCLINATION":74.0811,"RA_OF_ASC_NODE":76.4519,"ARG_OF_PERICENTER":97.3808,"MEAN_ANOMALY":264.5395,"EPHEMERIS_TYPE":0,"CLASSIFICATION_TYPE":"U","NORAD_CAT_ID":47073,"ELEMENT_SET_NO":999,"REV_AT_EPOCH":61373,"BSTAR":0.00043661801,"MEAN_MOTION_DOT":7.63e-6,"MEAN_MOTION_DDOT":0},{"OBJECT_NAME":"COSMOS 2251 DEB","OBJECT_ID":"1993-036BYE","EPOCH":"2026-02-15T02:32:45.254976","MEAN_MOTION":14.36309703,"ECCENTRICITY":0.01410908,"INCLINATION":74.0917,"RA_OF_ASC_NODE":190.9144,"ARG_OF_PERICENTER":203.8881,"MEAN_ANOMALY":274.7362,"EPHEMERIS_TYPE":0,"CLASSIFICATION_TYPE":"U","NORAD_CAT_ID":47074,"ELEMENT_SET_NO":999,"REV_AT_EPOCH":3606,"BSTAR":0.0024264324,"MEAN_MOTION_DOT":7.93e-5,"MEAN_MOTION_DDOT":0},{"OBJECT_NAME":"COSMOS 2251 DEB","OBJECT_ID":"1993-036BYJ","EPOCH":"2026-02-27T08:25:05.077344","MEAN_MOTION":15.02778291,"ECCENTRICITY":0.0017194,"INCLINATION":74.0208,"RA_OF_ASC_NODE":84.7822,"ARG_OF_PERICENTER":181.9976,"MEAN_ANOMALY":194.0424,"EPHEMERIS_TYPE":0,"CLASSIFICATION_TYPE":"U","NORAD_CAT_ID":47116,"ELEMENT_SET_NO":999,"REV_AT_EPOCH":60660,"BSTAR":0.0017596726,"MEAN_MOTION_DOT":0.00023658,"MEAN_MOTION_DDOT":0},{"OBJECT_NAME":"COSMOS 2251 DEB","OBJECT_ID":"1993-036BYP","EPOCH":"2026-03-05T16:01:43.312224","MEAN_MOTION":14.42388053,"ECCENTRICITY":0.0020879,"INCLINATION":74.0365,"RA_OF_ASC_NODE":147.6932,"ARG_OF_PERICENTER":216.6922,"MEAN_ANOMALY":143.2806,"EPHEMERIS_TYPE":0,"CLASSIFICATION_TYPE":"U","NORAD_CAT_ID":53093,"ELEMENT_SET_NO":999,"REV_AT_EPOCH":18921,"BSTAR":0.00094744,"MEAN_MOTION_DOT":3.116e-5,"MEAN_MOTION_DDOT":0}]
